ENTRYSAT                
1 44429U 98067QP  19297.76502306  .00009894  00000-0  16108-3 0  9999
2 44429  51.6409  77.1865 0003261 163.5473 196.5624 15.53322714 17672
VCC C                   
1 44430U 98067QQ  19297.76475863  .00010137  00000-0  16417-3 0  9993
2 44430  51.6414  77.1856 0003399 174.7748 185.3279 15.53437837 16495
VCC B                   
1 44431U 98067QR  19297.90283248  .00010013  00000-0  16424-3 0  9995
2 44431  51.6409  76.6067 0003516 171.1901 188.9152 15.53097200 17633
